start=new Date('2022-01-06T00:00:00.000Z').valueOf();
sats=[{"ARG_OF_PERICENTER":"283.9973","MEAN_MOTION":"15.69709755","APOAPSIS":"361.999","SITE":"AFWTR","RCS_SIZE":"LARGE","PERIAPSIS":"357.460","RA_OF_ASC_NODE":"167.0168","INCLINATION":"69.9977","CENTER_NAME":"EARTH","REF_FRAME":"TEME","BSTAR":"0.00038174000000","OBJECT_NAME":"STARLINK-3042","OBJECT_ID":"2021-082N","LAUNCH_DATE":"2021-09-14","MEAN_ELEMENT_THEORY":"SGP4","REV_AT_EPOCH":"368","MEAN_MOTION_DOT":"0.00045532","OBJECT_TYPE":"PAYLOAD","EPOCH":"2022-01-05T22:00:00.999936","ECCENTRICITY":"0.00033680","FILE":"3265018","ELEMENT_SET_NO":"999","TLE_LINE1":"1 49142U 21082N   22005.91667824  .00045532  00000-0  38174-3 0  9990","GP_ID":"193287771","SEMIMAJOR_AXIS":"6737.864","MEAN_MOTION_DDOT":"0.0000000000000","DECAY_DATE":null,"TLE_LINE2":"2 49142  69.9977 167.0168 0003368 283.9973 335.7375 15.69709755  3683","PERIOD":"91.737","COUNTRY_CODE":"US","EPHEMERIS_TYPE":"0","CLASSIFICATION_TYPE":"U","TIME_SYSTEM":"UTC","MEAN_ANOMALY":"335.7375","NORAD_CAT_ID":"49142"},{"REF_FRAME":"TEME","CENTER_NAME":"EARTH","BSTAR":"-0.00050049000000","SITE":"AFWTR","APOAPSIS":"361.854","MEAN_MOTION":"15.69777708","ARG_OF_PERICENTER":"283.1572","INCLINATION":"69.9977","RA_OF_ASC_NODE":"167.0155","PERIAPSIS":"357.216","RCS_SIZE":"LARGE","MEAN_ELEMENT_THEORY":"SGP4","MEAN_MOTION_DOT":"-0.00059607","REV_AT_EPOCH":"368","OBJECT_ID":"2021-082P","OBJECT_NAME":"STARLINK-3109","LAUNCH_DATE":"2021-09-14","TLE_LINE1":"1 49143U 21082P   22005.91667824 -.00059607  00000-0 -50049-3 0  9996","TLE_LINE2":"2 49143  69.9977 167.0155 0003442 283.1572 338.6623 15.69777708  3681","DECAY_DATE":null,"MEAN_MOTION_DDOT":"0.0000000000000","GP_ID":"193286554","SEMIMAJOR_AXIS":"6737.670","ECCENTRICITY":"0.00034420","FILE":"3265018","OBJECT_TYPE":"PAYLOAD","EPOCH":"2022-01-05T22:00:00.999936","ELEMENT_SET_NO":"999","NORAD_CAT_ID":"49143","MEAN_ANOMALY":"338.6623","TIME_SYSTEM":"UTC","EPHEMERIS_TYPE":"0","COUNTRY_CODE":"US","PERIOD":"91.733","CLASSIFICATION_TYPE":"U"},{"RCS_SIZE":"LARGE","PERIAPSIS":"570.050","RA_OF_ASC_NODE":"176.4251","INCLINATION":"70.0004","ARG_OF_PERICENTER":"276.9208","MEAN_MOTION":"14.98303213","APOAPSIS":"574.231","SITE":"AFWTR","BSTAR":"0.00269160000000","CENTER_NAME":"EARTH","REF_FRAME":"TEME","LAUNCH_DATE":"2021-09-14","OBJECT_NAME":"STARLINK-3100","OBJECT_ID":"2021-082Q","REV_AT_EPOCH":"359","MEAN_MOTION_DOT":"0.00032148","MEAN_ELEMENT_THEORY":"SGP4","ELEMENT_SET_NO":"999","EPOCH":"2022-01-05T22:00:00.999936","OBJECT_TYPE":"PAYLOAD","ECCENTRICITY":"0.00030080","FILE":"3265018","SEMIMAJOR_AXIS":"6950.276","GP_ID":"193286804","MEAN_MOTION_DDOT":"0.0000000000000","DECAY_DATE":null,"TLE_LINE2":"2 49144  70.0004 176.4251 0003008 276.9208 139.0205 14.98303213  3597","TLE_LINE1":"1 49144U 21082Q   22005.91667824  .00032148  00000-0  26916-2 0  9991","CLASSIFICATION_TYPE":"U","PERIOD":"96.109","COUNTRY_CODE":"US","EPHEMERIS_TYPE":"0","TIME_SYSTEM":"UTC","MEAN_ANOMALY":"139.0205","NORAD_CAT_ID":"49144"},{"MEAN_ANOMALY":"349.9804","NORAD_CAT_ID":"49145","TIME_SYSTEM":"UTC","EPHEMERIS_TYPE":"0","PERIOD":"91.736","COUNTRY_CODE":"US","CLASSIFICATION_TYPE":"U","TLE_LINE1":"1 49145U 21082R   22005.91667824  .00046166  00000-0  38670-3 0  9998","DECAY_DATE":null,"TLE_LINE2":"2 49145  70.0005 166.9966 0003834 280.2971 349.9804 15.69727010  3689","GP_ID":"193288052","SEMIMAJOR_AXIS":"6737.815","MEAN_MOTION_DDOT":"0.0000000000000","ECCENTRICITY":"0.00038340","FILE":"3265018","EPOCH":"2022-01-05T22:00:00.999936","OBJECT_TYPE":"PAYLOAD","ELEMENT_SET_NO":"999","MEAN_ELEMENT_THEORY":"SGP4","REV_AT_EPOCH":"368","MEAN_MOTION_DOT":"0.00046166","OBJECT_NAME":"STARLINK-3119","OBJECT_ID":"2021-082R","LAUNCH_DATE":"2021-09-14","REF_FRAME":"TEME","CENTER_NAME":"EARTH","BSTAR":"0.00038670000000","APOAPSIS":"362.263","SITE":"AFWTR","ARG_OF_PERICENTER":"280.2971","MEAN_MOTION":"15.69727010","PERIAPSIS":"357.097","RA_OF_ASC_NODE":"166.9966","INCLINATION":"70.0005","RCS_SIZE":"LARGE"},{"REF_FRAME":"TEME","CENTER_NAME":"EARTH","BSTAR":"0.00038969000000","APOAPSIS":"362.293","SITE":"AFWTR","MEAN_MOTION":"15.69697483","ARG_OF_PERICENTER":"278.6943","INCLINATION":"69.9996","PERIAPSIS":"357.237","RA_OF_ASC_NODE":"167.0038","RCS_SIZE":"LARGE","MEAN_ELEMENT_THEORY":"SGP4","MEAN_MOTION_DOT":"0.00046469","REV_AT_EPOCH":"368","OBJECT_ID":"2021-082S","OBJECT_NAME":"STARLINK-3116","LAUNCH_DATE":"2021-09-14","TLE_LINE1":"1 49146U 21082S   22005.91667824  .00046469  00000-0  38969-3 0  9996","TLE_LINE2":"2 49146  69.9996 167.0038 0003752 278.6943 349.5145 15.69697483  3681","DECAY_DATE":null,"GP_ID":"193288271","SEMIMAJOR_AXIS":"6737.900","MEAN_MOTION_DDOT":"0.0000000000000","ECCENTRICITY":"0.00037520","FILE":"3265018","EPOCH":"2022-01-05T22:00:00.999936","OBJECT_TYPE":"PAYLOAD","ELEMENT_SET_NO":"999","NORAD_CAT_ID":"49146","MEAN_ANOMALY":"349.5145","TIME_SYSTEM":"UTC","EPHEMERIS_TYPE":"0","COUNTRY_CODE":"US","PERIOD":"91.737","CLASSIFICATION_TYPE":"U"},{"SITE":"AFWTR","APOAPSIS":"362.261","MEAN_MOTION":"15.69713865","ARG_OF_PERICENTER":"281.3245","INCLINATION":"70.0003","PERIAPSIS":"357.174","RA_OF_ASC_NODE":"167.0052","RCS_SIZE":"LARGE","REF_FRAME":"TEME","CENTER_NAME":"EARTH","BSTAR":"0.00038425000000","OBJECT_ID":"2021-082T","OBJECT_NAME":"STARLINK-3071","LAUNCH_DATE":"2021-09-14","MEAN_ELEMENT_THEORY":"SGP4","MEAN_MOTION_DOT":"0.00045845","REV_AT_EPOCH":"368","ECCENTRICITY":"0.00037750","FILE":"3265018","EPOCH":"2022-01-05T22:00:00.999936","OBJECT_TYPE":"PAYLOAD","ELEMENT_SET_NO":"999","TLE_LINE1":"1 49147U 21082T   22005.91667824  .00045845  00000-0  38425-3 0  9991","TLE_LINE2":"2 49147  70.0003 167.0052 0003775 281.3245 342.6405 15.69713865  3687","DECAY_DATE":null,"GP_ID":"193287054","SEMIMAJOR_AXIS":"6737.853","MEAN_MOTION_DDOT":"0.0000000000000","EPHEMERIS_TYPE":"0","COUNTRY_CODE":"US","PERIOD":"91.736","CLASSIFICATION_TYPE":"U","NORAD_CAT_ID":"49147","MEAN_ANOMALY":"342.6405","TIME_SYSTEM":"UTC"},{"MEAN_ELEMENT_THEORY":"SGP4","MEAN_MOTION_DOT":"0.00045597","REV_AT_EPOCH":"368","OBJECT_ID":"2021-082U","OBJECT_NAME":"STARLINK-3048","LAUNCH_DATE":"2021-09-14","REF_FRAME":"TEME","CENTER_NAME":"EARTH","BSTAR":"0.00038225000000","SITE":"AFWTR","APOAPSIS":"362.114","MEAN_MOTION":"15.69711229","ARG_OF_PERICENTER":"283.8900","INCLINATION":"69.9974","PERIAPSIS":"357.337","RA_OF_ASC_NODE":"166.9977","RCS_SIZE":"LARGE","NORAD_CAT_ID":"49148","MEAN_ANOMALY":"350.6604","TIME_SYSTEM":"UTC","EPHEMERIS_TYPE":"0","COUNTRY_CODE":"US","PERIOD":"91.737","CLASSIFICATION_TYPE":"U","TLE_LINE1":"1 49148U 21082U   22005.91667824  .00045597  00000-0  38225-3 0  9994","TLE_LINE2":"2 49148  69.9974 166.9977 0003545 283.8900 350.6604 15.69711229  3688","DECAY_DATE":null,"GP_ID":"193287304","SEMIMAJOR_AXIS":"6737.860","MEAN_MOTION_DDOT":"0.0000000000000","ECCENTRICITY":"0.00035450","FILE":"3265018","EPOCH":"2022-01-05T22:00:00.999936","OBJECT_TYPE":"PAYLOAD","ELEMENT_SET_NO":"999"},{"OBJECT_TYPE":"PAYLOAD","EPOCH":"2022-01-05T22:00:00.999936","ECCENTRICITY":"0.00034010","FILE":"3265018","ELEMENT_SET_NO":"999","TLE_LINE1":"1 49149U 21082V   22005.91667824  .00034432  00000-0  28811-2 0  9990","GP_ID":"193287553","SEMIMAJOR_AXIS":"6950.268","MEAN_MOTION_DDOT":"0.0000000000000","TLE_LINE2":"2 49149  69.9970 176.4388 0003401 285.5017 156.1603 14.98305848  3591","DECAY_DATE":null,"COUNTRY_CODE":"US","PERIOD":"96.109","EPHEMERIS_TYPE":"0","CLASSIFICATION_TYPE":"U","TIME_SYSTEM":"UTC","NORAD_CAT_ID":"49149","MEAN_ANOMALY":"156.1603","MEAN_MOTION":"14.98305848","ARG_OF_PERICENTER":"285.5017","SITE":"AFWTR","APOAPSIS":"574.496","RCS_SIZE":"LARGE","INCLINATION":"69.9970","RA_OF_ASC_NODE":"176.4388","PERIAPSIS":"569.769","CENTER_NAME":"EARTH","REF_FRAME":"TEME","BSTAR":"0.00288110000000","OBJECT_ID":"2021-082V","OBJECT_NAME":"STARLINK-3053","LAUNCH_DATE":"2021-09-14","MEAN_ELEMENT_THEORY":"SGP4","MEAN_MOTION_DOT":"0.00034432","REV_AT_EPOCH":"359"},{"CENTER_NAME":"EARTH","REF_FRAME":"TEME","BSTAR":"0.00297140000000","ARG_OF_PERICENTER":"285.2939","MEAN_MOTION":"14.98336438","SITE":"AFWTR","APOAPSIS":"574.439","RCS_SIZE":"LARGE","PERIAPSIS":"569.637","RA_OF_ASC_NODE":"176.4390","INCLINATION":"69.9962","MEAN_ELEMENT_THEORY":"SGP4","REV_AT_EPOCH":"359","MEAN_MOTION_DOT":"0.00035548","OBJECT_NAME":"STARLINK-3104","OBJECT_ID":"2021-082W","LAUNCH_DATE":"2021-09-14","TLE_LINE1":"1 49150U 21082W   22005.91667824  .00035548  00000-0  29714-2 0  9994","GP_ID":"193287772","SEMIMAJOR_AXIS":"6950.173","MEAN_MOTION_DDOT":"0.0000000000000","DECAY_DATE":null,"TLE_LINE2":"2 49150  69.9962 176.4390 0003454 285.2939 182.1197 14.98336438  3591","EPOCH":"2022-01-05T22:00:00.999936","OBJECT_TYPE":"PAYLOAD","FILE":"3265018","ECCENTRICITY":"0.00034540","ELEMENT_SET_NO":"999","TIME_SYSTEM":"UTC","MEAN_ANOMALY":"182.1197","NORAD_CAT_ID":"49150","PERIOD":"96.107","COUNTRY_CODE":"US","EPHEMERIS_TYPE":"0","CLASSIFICATION_TYPE":"U"},{"APOAPSIS":"362.355","SITE":"AFWTR","MEAN_MOTION":"15.69691378","ARG_OF_PERICENTER":"282.4081","INCLINATION":"69.9987","PERIAPSIS":"357.210","RA_OF_ASC_NODE":"166.9883","RCS_SIZE":"LARGE","REF_FRAME":"TEME","CENTER_NAME":"EARTH","BSTAR":"0.00038912000000","OBJECT_ID":"2021-082X","OBJECT_NAME":"STARLINK-3102","LAUNCH_DATE":"2021-09-14","MEAN_ELEMENT_THEORY":"SGP4","MEAN_MOTION_DOT":"0.00046389","REV_AT_EPOCH":"368","FILE":"3265018","ECCENTRICITY":"0.00038180","OBJECT_TYPE":"PAYLOAD","EPOCH":"2022-01-05T22:00:00.999936","ELEMENT_SET_NO":"999","TLE_LINE1":"1 49151U 21082X   22005.91667824  .00046389  00000-0  38912-3 0  9991","TLE_LINE2":"2 49151  69.9987 166.9883 0003818 282.4081 354.3103 15.69691378  3687","DECAY_DATE":null,"SEMIMAJOR_AXIS":"6737.917","GP_ID":"193286555","MEAN_MOTION_DDOT":"0.0000000000000","EPHEMERIS_TYPE":"0","COUNTRY_CODE":"US","PERIOD":"91.738","CLASSIFICATION_TYPE":"U","NORAD_CAT_ID":"49151","MEAN_ANOMALY":"354.3103","TIME_SYSTEM":"UTC"}];
